NORAD_CAT_ID,OBJECT_NAME,OBJECT_TYPE,EPOCH,MEAN_MOTION,ECCENTRICITY,INCLINATION,RA_OF_ASC_NODE,ARG_OF_PERICENTER,MEAN_ANOMALY,BSTAR,MEAN_MOTION_DOT,MEAN_MOTION_DDOT,TLE_LINE0,TLE_LINE1,TLE_LINE2,SEMIMAJOR_AXIS,PERIOD,APOGEE,PERIGEE,DECAYED
53888.0,STARLINK-5034,PAYLOAD,2024-08-03 20:31:10,15.0884887,0.000129,53.2159,60.7614,89.4715,270.6425,0.00041822,6.376e-05,0.0,0 STARLINK-5034,1 53888U 22119C   24216.85498072  .00006376  00000-0  41822-3 0  9997,2 53888  53.2159  60.7614 0001290  89.4715 270.6425 15.08848870103277,6917.853,95.437,540.611,538.826,0.0
53888.0,STARLINK-5034,PAYLOAD,2024-08-04 06:03:28,15.08867612,0.0001335,53.216,58.9776,93.1369,266.9776,0.0010161,0.00015932,0.0,0 STARLINK-5034,1 53888U 22119C   24217.25241518  .00015932  00000-0  10161-2 0  9992,2 53888  53.2160  58.9776 0001335  93.1369 266.9776 15.08867612103333,6917.796,95.436,540.585,538.737,0.0
53888.0,STARLINK-5034,PAYLOAD,2024-08-04 14:00:24,15.08874584,0.0004344,53.2169,57.489,79.4343,280.7138,0.0013491,0.00021271,0.0,0 STARLINK-5034,1 53888U 22119C   24217.58362239  .00021271  00000-0  13491-2 0  9994,2 53888  53.2169  57.4890 0004344  79.4343 280.7138 15.08874584103809,6917.775,95.435,542.645,536.635,0.0
53888.0,STARLINK-5034,PAYLOAD,2024-08-04 20:21:57,15.08868279,0.0001308,53.2161,56.3011,100.2138,259.9002,0.0013575,0.00021399,0.0,0 STARLINK-5034,1 53888U 22119C   24217.84857748  .00021399  00000-0  13575-2 0  9991,2 53888  53.2161  56.3011 0001308 100.2138 259.9002 15.08868279103426,6917.794,95.436,540.564,538.754,0.0
53888.0,STARLINK-5034,PAYLOAD,2024-08-05 05:54:15,15.08869086,0.0001196,53.2159,54.5163,99.1779,260.9349,0.0018076,0.0002862,0.0,0 STARLINK-5034,1 53888U 22119C   24218.24601448  .00028620  00000-0  18076-2 0  9995,2 53888  53.2159  54.5163 0001196  99.1779 260.9349 15.08869086103482,6917.791,95.436,540.484,538.829,0.0
53888.0,STARLINK-5034,PAYLOAD,2024-08-05 20:12:44,15.08829182,0.0001197,53.216,51.8403,91.483,268.63,0.000917,0.00014332,0.0,0 STARLINK-5034,1 53888U 22119C   24218.84218570  .00014332  00000-0  91700-3 0  9992,2 53888  53.2160  51.8403 0001197  91.4830 268.6300 15.08829182103570,6917.913,95.438,540.607,538.95,0.0
53888.0,STARLINK-5034,PAYLOAD,2024-08-06 05:45:03,15.08847195,0.0001149,53.2162,50.0552,84.8748,275.2375,0.001722,0.00027229,0.0,0 STARLINK-5034,1 53888U 22119C   24219.23962635  .00027229  00000-0  17220-2 0  9997,2 53888  53.2162  50.0552 0001149  84.8748 275.2375 15.08847195104053,6917.858,95.437,540.518,538.929,0.0
53888.0,STARLINK-5034,PAYLOAD,2024-08-06 21:38:55,15.08851781,0.0001262,53.2164,47.0817,84.4202,275.6934,0.0016867,0.00026666,0.0,0 STARLINK-5034,1 53888U 22119C   24219.90202838  .00026666  00000-0  16867-2 0  9993,2 53888  53.2164  47.0817 0001262  84.4202 275.6934 15.08851781104154,6917.844,95.437,540.582,538.836,0.0
53888.0,STARLINK-5034,PAYLOAD,2024-08-07 11:57:23,15.08855745,0.0001594,53.2158,44.4051,70.3821,289.7344,0.0012016,0.00018895,0.0,0 STARLINK-5034,1 53888U 22119C   24220.49818887  .00018895  00000-0  12016-2 0  9993,2 53888  53.2158  44.4051 0001594  70.3821 289.7344 15.08855745103825,6917.832,95.437,540.8,538.595,0.0
53888.0,STARLINK-5034,PAYLOAD,2024-08-07 19:54:19,15.08848441,0.0001357,53.2164,42.918,74.9948,285.1195,0.00033357,5.026e-05,0.0,0 STARLINK-5034,1 53888U 22119C   24220.82938687  .00005026  00000-0  33357-3 0  9995,2 53888  53.2164  42.9180 0001357  74.9948 285.1195 15.08848441103879,6917.855,95.437,540.658,538.781,0.0
53888.0,STARLINK-5034,PAYLOAD,2024-08-08 11:48:10,15.08843903,0.0001406,53.2163,39.9451,76.8484,283.2665,0.00018744,2.697e-05,0.0,0 STARLINK-5034,1 53888U 22119C   24221.49178787  .00002697  00000-0  18744-3 0  9990,2 53888  53.2163  39.9451 0001406  76.8484 283.2665 15.08843903104393,6917.868,95.437,540.706,538.761,0.0
53888.0,STARLINK-5034,PAYLOAD,2024-08-08 18:09:43,15.08844043,0.0001476,53.2175,38.7556,72.4083,287.707,8.6222e-05,1.085e-05,0.0,0 STARLINK-5034,1 53888U 22119C   24221.75674907  .00001085  00000-0  86222-4 0  9991,2 53888  53.2175  38.7556 0001476  72.4083 287.7070 15.08844043104017,6917.868,95.437,540.754,538.712,0.0
53888.0,STARLINK-5034,PAYLOAD,2024-08-08 21:20:29,15.08849427,0.0001269,53.2166,38.159,87.4505,272.6632,0.00014705,2.054e-05,0.0,0 STARLINK-5034,1 53888U 22119C   24221.88922483  .00002054  00000-0  14705-3 0  9993,2 53888  53.2166  38.1590 0001269  87.4505 272.6632 15.08849427104450,6917.852,95.437,540.594,538.839,0.0
53888.0,STARLINK-5034,PAYLOAD,2024-08-09 05:17:24,15.08854241,0.0001228,53.2167,36.6724,98.5905,261.5227,0.00023398,3.439e-05,0.0,0 STARLINK-5034,1 53888U 22119C   24222.22042081  .00003439  00000-0  23398-3 0  9995,2 53888  53.2167  36.6724 0001228  98.5905 261.5227 15.08854241104081,6917.837,95.437,540.551,538.852,0.0
53888.0,STARLINK-5034,PAYLOAD,2024-08-09 18:00:29,15.08843333,0.0001555,53.2171,34.2915,105.6784,254.438,3.7405e-05,3.07e-06,0.0,0 STARLINK-5034,1 53888U 22119C   24222.75034627  .00000307  00000-0  37405-4 0  9996,2 53888  53.2171  34.2915 0001555 105.6784 254.4380 15.08843333104160,6917.87,95.437,540.811,538.659,0.0
53888.0,STARLINK-5034,PAYLOAD,2024-08-10 11:29:43,15.08856194,0.000155,53.2193,31.0206,113.46,246.6555,0.00027009,4.015e-05,0.0,0 STARLINK-5034,1 53888U 22119C   24223.47897817  .00004015  00000-0  27009-3 0  9992,2 53888  53.2193  31.0206 0001550 113.4600 246.6555 15.08856194104279,6917.831,95.437,540.768,538.624,0.0
53888.0,STARLINK-5034,PAYLOAD,2024-08-10 14:40:30,15.08861516,0.000153,53.2171,30.4321,74.814,285.3021,0.00044958,6.878e-05,0.0,0 STARLINK-5034,1 53888U 22119C   24223.61145873  .00006878  00000-0  44958-3 0  9997,2 53888  53.2171  30.4321 0001530  74.8140 285.3021 15.08861516104714,6917.815,95.436,540.738,538.621,0.0
53888.0,STARLINK-5034,PAYLOAD,2024-08-10 17:51:15,15.08887104,0.000149,53.2186,29.8323,110.8593,249.2559,0.00094146,0.00014746,0.0,0 STARLINK-5034,1 53888U 22119C   24223.74392687  .00014746  00000-0  94146-3 0  9995,2 53888  53.2186  29.8323 0001490 110.8593 249.2559 15.08887104104314,6917.736,95.435,540.632,538.571,0.0
53888.0,STARLINK-5034,PAYLOAD,2024-08-11 11:20:32,15.08814519,0.0002106,53.2184,26.56,119.0284,241.092,-0.00033151,-5.557e-05,0.0,0 STARLINK-5034,1 53888U 22119C   24224.47260080 -.00005557  00000-0 -33151-3 0  9998,2 53888  53.2184  26.5600 0002106 119.0284 241.0920 15.08814519104421,6917.958,95.439,541.28,538.366,0.0
53888.0,STARLINK-5034,PAYLOAD,2024-08-11 20:52:51,15.08814188,0.0001845,53.218,24.7773,104.0696,256.0501,-5.8618e-05,-1.22e-05,0.0,0 STARLINK-5034,1 53888U 22119C   24224.87004445 -.00001220  00000-0 -58618-4 0  9992,2 53888  53.2180  24.7773 0001845 104.0696 256.0501 15.08814188104904,6917.959,95.439,541.101,538.548,0.0
53888.0,STARLINK-5034,PAYLOAD,2024-08-12 03:14:24,15.08833182,0.0001753,53.2176,23.5929,102.8617,257.2571,0.00060134,9.293e-05,0.0,0 STARLINK-5034,1 53888U 22119C   24225.13500258  .00009293  00000-0  60134-3 0  9996,2 53888  53.2176  23.5929 0001753 102.8617 257.2571 15.08833182104529,6917.901,95.438,540.979,538.554,0.0
53888.0,STARLINK-5034,PAYLOAD,2024-08-12 11:11:20,15.0883529,0.000214,53.2183,22.1057,105.7652,254.3577,0.0012239,0.00019242,0.0,0 STARLINK-5034,1 53888U 22119C   24225.46620900  .00019242  00000-0  12239-2 0  9996,2 53888  53.2183  22.1057 0002140 105.7652 254.3577 15.08835290104993,6917.895,95.438,541.24,538.279,0.0
53888.0,STARLINK-5034,PAYLOAD,2024-08-12 17:32:52,15.08875597,9.99e-05,53.2178,20.9135,95.7754,264.3352,0.0020367,0.00032307,0.0,0 STARLINK-5034,1 53888U 22119C   24225.73115919  .00032307  00000-0  20367-2 0  9993,2 53888  53.2178  20.9135 0000999  95.7754 264.3352 15.08875597104616,6917.772,95.435,540.328,538.945,0.0
53888.0,STARLINK-5034,PAYLOAD,2024-08-13 03:05:07,15.08971198,3.88e-05,53.218,19.1273,316.5995,43.4966,0.0037356,0.00059885,0.0,0 STARLINK-5034,1 53888U 22119C   24226.12855920  .00059885  00000-0  37356-2 0  9996,2 53888  53.2180  19.1273 0000388 316.5995  43.4966 15.08971198104672,6917.479,95.429,539.613,539.076,0.0
53888.0,STARLINK-5034,PAYLOAD,2024-08-13 09:26:41,15.08870499,0.0003228,53.2257,17.948,108.9678,251.1664,-0.00087325,-0.00014173,0.0,0 STARLINK-5034,1 53888U 22119C   24226.39353221 -.00014173  00000-0 -87325-3 0  9997,2 53888  53.2257  17.9480 0003228 108.9678 251.1664 15.08870499104710,6917.787,95.436,541.885,537.419,0.0
53888.0,STARLINK-5034,PAYLOAD,2024-08-13 20:34:24,15.08811039,0.0001341,53.2144,15.8569,107.0121,253.1018,-0.0013849,-0.00022243,0.0,0 STARLINK-5034,1 53888U 22119C   24226.85722247 -.00022243  00000-0 -13849-2 0  9992,2 53888  53.2144  15.8569 0001341 107.0121 253.1018 15.08811039104784,6917.969,95.439,540.762,538.906,0.0
53888.0,STARLINK-5034,PAYLOAD,2024-08-14 14:03:39,15.08821823,8.82e-05,53.2163,12.5873,99.7556,260.3536,0.000947,0.00014808,0.0,0 STARLINK-5034,1 53888U 22119C   24227.58587866  .00014808  00000-0  94700-3 0  9991,2 53888  53.2163  12.5873 0000882  99.7556 260.3536 15.08821823105312,6917.936,95.439,540.411,539.191,0.0
53888.0,STARLINK-5034,PAYLOAD,2024-08-14 17:14:26,15.0883814,0.000119,53.2168,11.9942,95.4801,264.6327,0.0014909,0.00023518,0.0,0 STARLINK-5034,1 53888U 22119C   24227.71835920  .00023518  00000-0  14909-2 0  9993,2 53888  53.2168  11.9942 0001190  95.4801 264.6327 15.08838140104916,6917.886,95.438,540.574,538.928,0.0
53888.0,STARLINK-5034,PAYLOAD,2024-08-15 15:29:50,15.08852363,0.0001166,53.2171,7.8297,109.7823,250.3295,0.00092114,0.00014407,0.0,0 STARLINK-5034,1 53888U 22119C   24228.64571774  .00014407  00000-0  92114-3 0  9992,2 53888  53.2171   7.8297 0001166 109.7823 250.3295 15.08852363105474,6917.843,95.437,540.514,538.901,0.0
53888.0,STARLINK-5034,PAYLOAD,2024-08-16 02:37:31,15.08862626,0.0001193,53.2167,5.747,90.7849,269.328,0.00078489,0.00012233,0.0,0 STARLINK-5034,1 53888U 22119C   24229.10939206  .00012233  00000-0  78489-3 0  9996,2 53888  53.2167   5.7470 0001193  90.7849 269.3280 15.08862626105541,6917.811,95.436,540.502,538.851,0.0
